{"type":"Topology","arcs":[[[743,0],[-5,11],[23,-11],[-18,0]],[[0,434],[3,1],[131,-37]],[[134,398],[-19,-68],[-35,-19],[-49,-13],[-31,-34],[0,170]],[[358,693],[-24,-42],[-33,-6],[-56,-31],[-34,-14],[-59,-53],[-18,-149]],[[0,434],[0,397]],[[0,831],[113,-30],[62,-71],[129,1],[54,-38]],[[450,839],[-42,-52],[-22,-41],[-28,-53]],[[0,831],[0,587]],[[0,1418],[3,-3],[55,-10],[338,-210]],[[396,1195],[-54,-117]],[[342,1078],[-57,-136],[19,-45],[114,26],[16,-26],[16,-58]],[[819,1120],[-44,-63],[-25,-51],[-13,-50],[-7,-33],[-22,-50],[-12,-47],[-49,-48],[-71,-46],[-56,-63],[-20,-51],[-45,-15],[-62,-18],[-34,4],[9,40],[103,165],[-21,45]],[[342,1078],[90,-57],[89,34],[87,90],[74,8],[49,37],[88,-70]],[[1024,1535],[-91,-206],[-114,-209]],[[396,1195],[34,137],[24,21],[-59,73],[1,109]],[[396,1535],[628,0]],[[1078,1521],[7,14],[459,0],[-28,-26],[-39,-56],[-17,-63]],[[1460,1390],[-34,27],[-136,36],[-212,68],[0,0]],[[1460,1390],[-16,-15],[-36,2],[-36,-4],[-17,-32],[-9,-80],[46,-45],[22,-45],[-98,-8],[-111,3],[-85,-28],[-101,4],[-17,45],[0,27],[20,37],[32,72],[20,41],[-12,45],[-28,19],[44,93]],[[998,1115],[-40,-69],[-79,-128],[0,-47],[-11,-46],[-81,-35],[-45,-16],[15,107],[28,90],[49,80],[147,263],[19,51],[15,30],[31,-8],[4,-41],[-40,-68],[-28,-55],[-4,-50],[20,-58]],[[1550,1064],[10,31],[-43,65],[27,79],[48,6],[32,-36],[23,-45],[22,-22],[36,18],[8,19],[0,-688],[-33,-28],[2,-52],[31,-1],[0,-42],[-22,0],[-138,9]],[[1553,377],[44,33],[-23,59],[-71,23]],[[1503,492],[-8,17]],[[1495,509],[84,49],[53,50],[2,190],[-13,55],[69,20],[17,88],[-157,103]],[[1713,1240],[0,2],[-101,35],[6,38],[34,41],[46,2],[15,-6],[0,-112]],[[408,544],[48,15],[40,20],[42,21],[21,-2],[11,-16],[5,-22],[-10,-14],[9,-37],[32,-31],[24,-41],[-149,-168],[-97,-76],[-18,7],[-26,0],[-46,-25],[-51,-27],[-38,-29],[-52,-7],[-59,-25],[-45,-10],[-24,7],[-6,20],[14,20],[27,14],[2,36],[-8,41],[27,31],[43,18],[35,25],[18,33],[11,53],[10,97],[8,54],[29,32],[35,21],[53,-21],[85,-14]],[[1495,509],[-29,19],[-53,32],[-53,27],[-43,11],[-68,-18]],[[1249,580],[-12,70],[-57,106],[-69,-41],[-76,93],[-24,65],[-84,54]],[[927,927],[81,104],[66,54],[66,-30],[52,8],[29,-20],[116,73],[135,-18],[66,-74],[12,40]],[[1553,377],[-48,14],[-136,-20],[-259,-102],[-130,-44],[0,47],[272,89],[187,68],[41,36],[23,27]],[[1249,580],[-53,-13],[-25,-13],[-18,-16],[-26,-28],[-5,-33],[29,-48],[18,-64],[-43,-18],[-18,22],[-43,2],[-45,0],[-18,-21],[-29,-11],[-142,-18],[-48,4],[-25,30],[34,14],[8,22],[-21,27],[-77,29],[-30,50],[12,66],[37,36],[34,54],[-8,46],[3,3],[38,40],[13,21],[22,12],[31,17],[34,15],[31,55],[8,65]],[[0,1418],[0,117],[396,0]]],"transform":{"scale":[0.00032622183304144905,0.00028676091205211927],"translate":[-74.25909,40.477399]},"objects":{"ne_10m_admin_2_counties":{"type":"GeometryCollection","geometries":[{"arcs":[[0]],"type":"Polygon","properties":{"FEATURECLA":"Admin-2 scale rank","SCALERANK":0,"ADM2_CODE":"USA-34025","ISO_3166_2":"US-34","ISO_A2":"US","ADM0_SR":1,"NAME":"Monmouth","NAME_ALT":"Monmouth County","NAME_LOCAL":"","TYPE":"County","TYPE_EN":"County","CODE_LOCAL":"34025","REGION":"NJ","REGION_COD":"34","ABBREV":"","AREA_SQKM":1263,"SAMEASCITY":0,"LABELRANK":0,"NAME_LEN":8,"MAPCOLOR9":1,"MAPCOLOR13":1,"FIPS":"US34025","SOV_A3":"US1","ADM0_A3":"USA","ADM0_LABEL":2,"ADMIN":"United States of America","GEONUNIT":"United States of America","GU_A3":"USA","MIN_LABEL":8,"MAX_LABEL":10,"MIN_ZOOM":6.6,"WIKIDATAID":"Q502424","NE_ID":1730093403,"latitude":40.276127,"longitude":-74.160388,"NAME_AR":"مونموث","NAME_BN":"","NAME_DE":"Monmouth","NAME_EL":"Κομητεία Μόνμουθ","NAME_EN":"Monmouth","NAME_ES":"Monmouth","NAME_FA":"شهرستان مونمووث، نیوجرسی","NAME_FR":"Monmouth","NAME_HE":"מחוז מונמות'","NAME_HI":"","NAME_HU":"Monmouth","NAME_ID":"","NAME_IT":"Monmouth","NAME_JA":"モンマス郡","NAME_KO":"먼마우스","NAME_NL":"Monmouth","NAME_PL":"Monmouth","NAME_PT":"Monmouth","NAME_RU":"Монмут","NAME_SV":"Monmouth","NAME_TR":"Monmouth","NAME_UK":"Монмаут","NAME_UR":"مونماوتھ کاؤنٹی، نیو جرسی","NAME_VI":"Monmouth","NAME_ZH":"蒙茅斯县","NAME_ZHT":"蒙茅斯縣"}},{"arcs":[[1,2]],"type":"Polygon","properties":{"FEATURECLA":"Admin-2 scale rank","SCALERANK":0,"ADM2_CODE":"USA-34023","ISO_3166_2":"US-34","ISO_A2":"US","ADM0_SR":1,"NAME":"Middlesex","NAME_ALT":"Middlesex County","NAME_LOCAL":"","TYPE":"County","TYPE_EN":"County","CODE_LOCAL":"34023","REGION":"NJ","REGION_COD":"34","ABBREV":"","AREA_SQKM":813,"SAMEASCITY":0,"LABELRANK":0,"NAME_LEN":9,"MAPCOLOR9":1,"MAPCOLOR13":1,"FIPS":"US34023","SOV_A3":"US1","ADM0_A3":"USA","ADM0_LABEL":2,"ADMIN":"United States of America","GEONUNIT":"United States of America","GU_A3":"USA","MIN_LABEL":8,"MAX_LABEL":10,"MIN_ZOOM":6.6,"WIKIDATAID":"Q496862","NE_ID":1730093401,"latitude":40.434581,"longitude":-74.376802,"NAME_AR":"ميدلسكس","NAME_BN":"","NAME_DE":"Middlesex","NAME_EL":"Κομητεία Μίντλσεξ","NAME_EN":"Middlesex","NAME_ES":"Middlesex","NAME_FA":"شهرستان میدلسکس، نیوجرسی","NAME_FR":"Middlesex","NAME_HE":"מחוז מידלסקס","NAME_HI":"","NAME_HU":"Middlesex","NAME_ID":"","NAME_IT":"Middlesex","NAME_JA":"ミドルセックス郡","NAME_KO":"미들섹스","NAME_NL":"Middlesex","NAME_PL":"Middlesex","NAME_PT":"Middlesex","NAME_RU":"Мидлсекс","NAME_SV":"Middlesex","NAME_TR":"Middlesex","NAME_UK":"Міддлсекс","NAME_UR":"مڈلسیکس کاؤنٹی، نیو جرسی","NAME_VI":"Middlesex","NAME_ZH":"密德萨克斯郡","NAME_ZHT":"密德薩克斯郡"}},{"arcs":[[3,-2,4,5]],"type":"Polygon","properties":{"FEATURECLA":"Admin-2 scale rank","SCALERANK":0,"ADM2_CODE":"USA-34039","ISO_3166_2":"US-34","ISO_A2":"US","ADM0_SR":1,"NAME":"Union","NAME_ALT":"Union County","NAME_LOCAL":"","TYPE":"County","TYPE_EN":"County","CODE_LOCAL":"34039","REGION":"NJ","REGION_COD":"34","ABBREV":"","AREA_SQKM":263,"SAMEASCITY":0,"LABELRANK":0,"NAME_LEN":5,"MAPCOLOR9":1,"MAPCOLOR13":1,"FIPS":"US34039","SOV_A3":"US1","ADM0_A3":"USA","ADM0_LABEL":2,"ADMIN":"United States of America","GEONUNIT":"United States of America","GU_A3":"USA","MIN_LABEL":8,"MAX_LABEL":10,"MIN_ZOOM":6.6,"WIKIDATAID":"Q502459","NE_ID":1730093415,"latitude":40.661484,"longitude":-74.312663,"NAME_AR":"يونيون","NAME_BN":"ইউনিয়ন কাউন্টি","NAME_DE":"Union","NAME_EL":"Κομητεία Γιούνιον","NAME_EN":"Union","NAME_ES":"Union","NAME_FA":"شهرستان یونیون، نیوجرسی","NAME_FR":"'Union","NAME_HE":"מחוז יוניון","NAME_HI":"","NAME_HU":"Union","NAME_ID":"","NAME_IT":"Union","NAME_JA":"ユニオン郡","NAME_KO":"유니언","NAME_NL":"Union","NAME_PL":"Union","NAME_PT":"Union","NAME_RU":"Юнион","NAME_SV":"Union","NAME_TR":"Union","NAME_UK":"Юніон","NAME_UR":"یونین کاؤنٹی، نیو جرسی","NAME_VI":"Union","NAME_ZH":"联合县","NAME_ZHT":"聯合縣"}},{"arcs":[[6,-6,7,8,9,10]],"type":"Polygon","properties":{"FEATURECLA":"Admin-2 scale rank","SCALERANK":0,"ADM2_CODE":"USA-34013","ISO_3166_2":"US-34","ISO_A2":"US","ADM0_SR":1,"NAME":"Essex","NAME_ALT":"Essex County","NAME_LOCAL":"","TYPE":"County","TYPE_EN":"County","CODE_LOCAL":"34013","REGION":"NJ","REGION_COD":"34","ABBREV":"","AREA_SQKM":331,"SAMEASCITY":0,"LABELRANK":0,"NAME_LEN":5,"MAPCOLOR9":1,"MAPCOLOR13":1,"FIPS":"US34013","SOV_A3":"US1","ADM0_A3":"USA","ADM0_LABEL":2,"ADMIN":"United States of America","GEONUNIT":"United States of America","GU_A3":"USA","MIN_LABEL":8,"MAX_LABEL":10,"MIN_ZOOM":6.6,"WIKIDATAID":"Q128077","NE_ID":1730093389,"latitude":40.798824,"longitude":-74.255638,"NAME_AR":"إسكس","NAME_BN":"","NAME_DE":"Essex","NAME_EL":"Κομητεία Έσεξ","NAME_EN":"Essex","NAME_ES":"Essex","NAME_FA":"اسیکس، نیوجرسی","NAME_FR":"'Essex","NAME_HE":"מחוז אסקס","NAME_HI":"","NAME_HU":"Essex","NAME_ID":"","NAME_IT":"Essex","NAME_JA":"エセックス郡","NAME_KO":"에식스","NAME_NL":"Essex","NAME_PL":"Essex","NAME_PT":"Essex","NAME_RU":"Эссекс","NAME_SV":"Essex","NAME_TR":"Essex","NAME_UK":"Ессекс","NAME_UR":"ایسیکس کاؤنٹی، نیو جرسی","NAME_VI":"Essex","NAME_ZH":"埃塞克斯县","NAME_ZHT":"艾塞克斯郡"}},{"arcs":[[11,-11,12]],"type":"Polygon","properties":{"FEATURECLA":"Admin-2 scale rank","SCALERANK":0,"ADM2_CODE":"USA-34017","ISO_3166_2":"US-34","ISO_A2":"US","ADM0_SR":1,"NAME":"Hudson","NAME_ALT":"Hudson County","NAME_LOCAL":"","TYPE":"County","TYPE_EN":"County","CODE_LOCAL":"34017","REGION":"NJ","REGION_COD":"34","ABBREV":"","AREA_SQKM":126,"SAMEASCITY":0,"LABELRANK":0,"NAME_LEN":6,"MAPCOLOR9":1,"MAPCOLOR13":1,"FIPS":"US34017","SOV_A3":"US1","ADM0_A3":"USA","ADM0_LABEL":2,"ADMIN":"United States of America","GEONUNIT":"United States of America","GU_A3":"USA","MIN_LABEL":8,"MAX_LABEL":10,"MIN_ZOOM":6.6,"WIKIDATAID":"Q490505","NE_ID":1730093395,"latitude":40.740711,"longitude":-74.072171,"NAME_AR":"هدسون","NAME_BN":"","NAME_DE":"Hudson","NAME_EL":"Κομητεία Χάντσον","NAME_EN":"Hudson","NAME_ES":"Hudson","NAME_FA":"شهرستان هادسون، نیوجرسی","NAME_FR":"Hudson","NAME_HE":"מחוז הדסון","NAME_HI":"","NAME_HU":"Hudson","NAME_ID":"","NAME_IT":"Hudson","NAME_JA":"ハドソン郡","NAME_KO":"허드슨","NAME_NL":"Hudson","NAME_PL":"Hudson","NAME_PT":"Hudson","NAME_RU":"Хадсон","NAME_SV":"Hudson","NAME_TR":"Hudson","NAME_UK":"Гудзон","NAME_UR":"ہڈسن کاؤنٹی، نیو جرسی","NAME_VI":"Hudson","NAME_ZH":"哈德逊县","NAME_ZHT":"哈德遜郡"}},{"arcs":[[13,-13,-10,14,15]],"type":"Polygon","properties":{"FEATURECLA":"Admin-2 scale rank","SCALERANK":0,"ADM2_CODE":"USA-34003","ISO_3166_2":"US-34","ISO_A2":"US","ADM0_SR":1,"NAME":"Bergen","NAME_ALT":"Bergen County","NAME_LOCAL":"","TYPE":"County","TYPE_EN":"County","CODE_LOCAL":"34003","REGION":"NJ","REGION_COD":"34","ABBREV":"","AREA_SQKM":610,"SAMEASCITY":0,"LABELRANK":0,"NAME_LEN":6,"MAPCOLOR9":1,"MAPCOLOR13":1,"FIPS":"US34003","SOV_A3":"US1","ADM0_A3":"USA","ADM0_LABEL":2,"ADMIN":"United States of America","GEONUNIT":"United States of America","GU_A3":"USA","MIN_LABEL":8,"MAX_LABEL":10,"MIN_ZOOM":6.6,"WIKIDATAID":"Q112915","NE_ID":1730093381,"latitude":40.938194,"longitude":-74.030581,"NAME_AR":"بيرغن","NAME_BN":"","NAME_DE":"Bergen","NAME_EL":"Κομητεία Μπέργκεν","NAME_EN":"Bergen","NAME_ES":"Bergen","NAME_FA":"شهرستان برگن، نیوجرسی","NAME_FR":"Bergen","NAME_HE":"מחוז ברגן","NAME_HI":"","NAME_HU":"Bergen","NAME_ID":"","NAME_IT":"Bergen","NAME_JA":"バーゲン郡","NAME_KO":"버건","NAME_NL":"Bergen","NAME_PL":"Bergen","NAME_PT":"Bergen","NAME_RU":"Берген","NAME_SV":"Bergen","NAME_TR":"Bergen","NAME_UK":"Берген","NAME_UR":"برگن کاؤنٹی، نیو جرسی","NAME_VI":"Bergen","NAME_ZH":"博根县","NAME_ZHT":"博根郡"}},{"arcs":[[16,17]],"type":"Polygon","properties":{"FEATURECLA":"Admin-2 scale rank","SCALERANK":0,"ADM2_CODE":"USA-36119","ISO_3166_2":"US-36","ISO_A2":"US","ADM0_SR":1,"NAME":"Westchester","NAME_ALT":"Westchester County","NAME_LOCAL":"","TYPE":"County","TYPE_EN":"County","CODE_LOCAL":"36119","REGION":"NY","REGION_COD":"36","ABBREV":"","AREA_SQKM":1153,"SAMEASCITY":0,"LABELRANK":0,"NAME_LEN":11,"MAPCOLOR9":1,"MAPCOLOR13":1,"FIPS":"US36119","SOV_A3":"US1","ADM0_A3":"USA","ADM0_LABEL":2,"ADMIN":"United States of America","GEONUNIT":"United States of America","GU_A3":"USA","MIN_LABEL":8,"MAX_LABEL":10,"MIN_ZOOM":6.6,"WIKIDATAID":"Q54066","NE_ID":1730096659,"latitude":41.214286,"longitude":-73.763387,"NAME_AR":"ويستتشستر، نيويورك","NAME_BN":"","NAME_DE":"Westchester","NAME_EL":"Κομητεία Γουέστσεστερ","NAME_EN":"Westchester","NAME_ES":"Westchester","NAME_FA":"شهرستان وستچستر، نیویورک","NAME_FR":"Westchester","NAME_HE":"מחוז וסטצ'סטר","NAME_HI":"","NAME_HU":"Westchester","NAME_ID":"Westchester","NAME_IT":"Westchester","NAME_JA":"ウェストチェスター郡","NAME_KO":"웨스트체스터","NAME_NL":"Westchester","NAME_PL":"Westchester","NAME_PT":"Westchester","NAME_RU":"Уэстчестер","NAME_SV":"Westchester","NAME_TR":"Westchester","NAME_UK":"Вестчестер","NAME_UR":"ویسٹچیسٹر کاؤنٹی، نیویارک","NAME_VI":"Westchester","NAME_ZH":"威斯特徹斯特郡","NAME_ZHT":"威斯特徹斯特郡"}},{"arcs":[[18,-18]],"type":"Polygon","properties":{"FEATURECLA":"Admin-2 scale rank","SCALERANK":0,"ADM2_CODE":"USA-36005","ISO_3166_2":"US-36","ISO_A2":"US","ADM0_SR":1,"NAME":"Bronx","NAME_ALT":"Bronx County","NAME_LOCAL":"","TYPE":"County","TYPE_EN":"County","CODE_LOCAL":"36005","REGION":"NY","REGION_COD":"36","ABBREV":"","AREA_SQKM":96,"SAMEASCITY":1,"LABELRANK":0,"NAME_LEN":5,"MAPCOLOR9":1,"MAPCOLOR13":1,"FIPS":"US36005","SOV_A3":"US1","ADM0_A3":"USA","ADM0_LABEL":2,"ADMIN":"United States of America","GEONUNIT":"United States of America","GU_A3":"USA","MIN_LABEL":8,"MAX_LABEL":10,"MIN_ZOOM":6.6,"WIKIDATAID":"Q18426","NE_ID":1730096639,"latitude":40.856852,"longitude":-73.866193,"NAME_AR":"ذا برونكس","NAME_BN":"দ্য ব্রংক্স","NAME_DE":"Bronx","NAME_EL":"Μπρονξ","NAME_EN":"The Bronx","NAME_ES":"El Bronx","NAME_FA":"برانکس","NAME_FR":"Bronx","NAME_HE":"הברונקס","NAME_HI":"ब्रोंक्स","NAME_HU":"Bronx","NAME_ID":"Bronx","NAME_IT":"The Bronx","NAME_JA":"ブロンクス区","NAME_KO":"브롱크스","NAME_NL":"The Bronx","NAME_PL":"Bronx","NAME_PT":"Bronx","NAME_RU":"Бронкс","NAME_SV":"Bronx","NAME_TR":"Bronx","NAME_UK":"Бронкс","NAME_UR":"برونکس کاؤنٹی","NAME_VI":"The Bronx","NAME_ZH":"布朗克斯","NAME_ZHT":"布朗克斯"}},{"arcs":[[19]],"type":"Polygon","properties":{"FEATURECLA":"Admin-2 scale rank","SCALERANK":0,"ADM2_CODE":"USA-36061","ISO_3166_2":"US-36","ISO_A2":"US","ADM0_SR":1,"NAME":"New York","NAME_ALT":"New York County","NAME_LOCAL":"","TYPE":"County","TYPE_EN":"County","CODE_LOCAL":"36061","REGION":"NY","REGION_COD":"36","ABBREV":"","AREA_SQKM":49,"SAMEASCITY":1,"LABELRANK":0,"NAME_LEN":8,"MAPCOLOR9":1,"MAPCOLOR13":1,"FIPS":"US36061","SOV_A3":"US1","ADM0_A3":"USA","ADM0_LABEL":2,"ADMIN":"United States of America","GEONUNIT":"United States of America","GU_A3":"USA","MIN_LABEL":8,"MAX_LABEL":10,"MIN_ZOOM":6.6,"WIKIDATAID":"Q500416","NE_ID":1730096645,"latitude":40.775919,"longitude":-73.969166,"NAME_AR":"","NAME_BN":"","NAME_DE":"New York","NAME_EL":"","NAME_EN":"New York","NAME_ES":"Nueva York","NAME_FA":"","NAME_FR":"New York","NAME_HE":"","NAME_HI":"","NAME_HU":"","NAME_ID":"","NAME_IT":"New York","NAME_JA":"ニュー・ヨーク郡","NAME_KO":"","NAME_NL":"New York","NAME_PL":"","NAME_PT":"","NAME_RU":"Нью-Йорк","NAME_SV":"","NAME_TR":"","NAME_UK":"","NAME_UR":"","NAME_VI":"","NAME_ZH":"纽约县","NAME_ZHT":"纽约县"}},{"arcs":[[[20,21,22,23]],[[24]]],"type":"MultiPolygon","properties":{"FEATURECLA":"Admin-2 scale rank","SCALERANK":0,"ADM2_CODE":"USA-36059","ISO_3166_2":"US-36","ISO_A2":"US","ADM0_SR":1,"NAME":"Nassau","NAME_ALT":"Nassau County","NAME_LOCAL":"","TYPE":"County","TYPE_EN":"County","CODE_LOCAL":"36059","REGION":"NY","REGION_COD":"36","ABBREV":"","AREA_SQKM":731,"SAMEASCITY":0,"LABELRANK":0,"NAME_LEN":6,"MAPCOLOR9":1,"MAPCOLOR13":1,"FIPS":"US36059","SOV_A3":"US1","ADM0_A3":"USA","ADM0_LABEL":2,"ADMIN":"United States of America","GEONUNIT":"United States of America","GU_A3":"USA","MIN_LABEL":8,"MAX_LABEL":10,"MIN_ZOOM":6.6,"WIKIDATAID":"Q54064","NE_ID":1730096877,"latitude":40.74495,"longitude":-73.58891,"NAME_AR":"ناسو، نيويورك","NAME_BN":"","NAME_DE":"Nassau","NAME_EL":"Κομητεία Νάσαου","NAME_EN":"Nassau","NAME_ES":"Nassau","NAME_FA":"شهرستان ناساو، نیویورک","NAME_FR":"Nassau","NAME_HE":"מחוז נסאו","NAME_HI":"","NAME_HU":"Nassau","NAME_ID":"Nassau","NAME_IT":"Nassau","NAME_JA":"ナッソー郡","NAME_KO":"나소","NAME_NL":"Nassau","NAME_PL":"Nassau","NAME_PT":"Nassau","NAME_RU":"Нассо","NAME_SV":"Nassau","NAME_TR":"Nassau","NAME_UK":"Нассау","NAME_UR":"نساؤ کاؤنٹی، نیویارک","NAME_VI":"Nassau","NAME_ZH":"納蘇縣","NAME_ZHT":"納蘇縣"}},{"arcs":[[25]],"type":"Polygon","properties":{"FEATURECLA":"Admin-2 scale rank","SCALERANK":0,"ADM2_CODE":"USA-36085","ISO_3166_2":"US-36","ISO_A2":"US","ADM0_SR":1,"NAME":"Richmond","NAME_ALT":"Richmond County","NAME_LOCAL":"","TYPE":"County","TYPE_EN":"County","CODE_LOCAL":"36085","REGION":"NY","REGION_COD":"36","ABBREV":"","AREA_SQKM":140,"SAMEASCITY":1,"LABELRANK":0,"NAME_LEN":8,"MAPCOLOR9":1,"MAPCOLOR13":1,"FIPS":"US36085","SOV_A3":"US1","ADM0_A3":"USA","ADM0_LABEL":2,"ADMIN":"United States of America","GEONUNIT":"United States of America","GU_A3":"USA","MIN_LABEL":8,"MAX_LABEL":10,"MIN_ZOOM":6.6,"WIKIDATAID":"Q18432","NE_ID":1730093567,"latitude":40.585535,"longitude":-74.148752,"NAME_AR":"جزيرة ستاتن","NAME_BN":"স্ট্যাটেন আইল্যান্ড","NAME_DE":"Staten Island","NAME_EL":"Στάτεν Άιλαντ","NAME_EN":"Staten Island","NAME_ES":"Staten Island","NAME_FA":"استاتن آیلند","NAME_FR":"Staten Island","NAME_HE":"סטטן איילנד","NAME_HI":"","NAME_HU":"Staten Island","NAME_ID":"Staten Island","NAME_IT":"Staten Island","NAME_JA":"スタテンアイランド","NAME_KO":"스태튼아일랜드","NAME_NL":"Staten Island","NAME_PL":"Staten Island","NAME_PT":"Staten Island","NAME_RU":"Статен-Айленд","NAME_SV":"Staten Island","NAME_TR":"Staten Island","NAME_UK":"Стетен-Айленд","NAME_UR":"سٹیٹن جزیرہ، نیویارک","NAME_VI":"Đảo Staten","NAME_ZH":"史泰登岛","NAME_ZHT":"史泰登島"}},{"arcs":[[[-24,26,27,28]],[[29,-22]]],"type":"MultiPolygon","properties":{"FEATURECLA":"Admin-2 scale rank","SCALERANK":0,"ADM2_CODE":"USA-36081","ISO_3166_2":"US-36","ISO_A2":"US","ADM0_SR":1,"NAME":"Queens","NAME_ALT":"Queens County","NAME_LOCAL":"","TYPE":"County","TYPE_EN":"County","CODE_LOCAL":"36081","REGION":"NY","REGION_COD":"36","ABBREV":"","AREA_SQKM":280,"SAMEASCITY":1,"LABELRANK":0,"NAME_LEN":6,"MAPCOLOR9":1,"MAPCOLOR13":1,"FIPS":"US36081","SOV_A3":"US1","ADM0_A3":"USA","ADM0_LABEL":2,"ADMIN":"United States of America","GEONUNIT":"United States of America","GU_A3":"USA","MIN_LABEL":8,"MAX_LABEL":10,"MIN_ZOOM":6.6,"WIKIDATAID":"Q18424","NE_ID":1730096653,"latitude":40.718565,"longitude":-73.80646,"NAME_AR":"كوينز","NAME_BN":"কুইন্স","NAME_DE":"Queens","NAME_EL":"Κουίνς","NAME_EN":"Queens","NAME_ES":"Queens","NAME_FA":"کویینز","NAME_FR":"Queens","NAME_HE":"קווינס","NAME_HI":"क्वीनस","NAME_HU":"Queens","NAME_ID":"Queens","NAME_IT":"Queens","NAME_JA":"クイーンズ区","NAME_KO":"퀸스","NAME_NL":"Queens","NAME_PL":"Queens","NAME_PT":"Queens","NAME_RU":"Куинс","NAME_SV":"Queens","NAME_TR":"Queens","NAME_UK":"Квінз","NAME_UR":"کوئینز","NAME_VI":"Queens","NAME_ZH":"皇后區","NAME_ZHT":"皇后區"}},{"arcs":[[-28,30]],"type":"Polygon","properties":{"FEATURECLA":"Admin-2 scale rank","SCALERANK":0,"ADM2_CODE":"USA-36047","ISO_3166_2":"US-36","ISO_A2":"US","ADM0_SR":1,"NAME":"Kings","NAME_ALT":"Kings County","NAME_LOCAL":"","TYPE":"County","TYPE_EN":"County","CODE_LOCAL":"36047","REGION":"NY","REGION_COD":"36","ABBREV":"","AREA_SQKM":179,"SAMEASCITY":1,"LABELRANK":0,"NAME_LEN":5,"MAPCOLOR9":1,"MAPCOLOR13":1,"FIPS":"US36047","SOV_A3":"US1","ADM0_A3":"USA","ADM0_LABEL":2,"ADMIN":"United States of America","GEONUNIT":"United States of America","GU_A3":"USA","MIN_LABEL":8,"MAX_LABEL":10,"MIN_ZOOM":6.6,"WIKIDATAID":"Q18419","NE_ID":1730096643,"latitude":40.643605,"longitude":-73.949757,"NAME_AR":"بروكلين","NAME_BN":"ব্রুকলিন","NAME_DE":"Brooklyn","NAME_EL":"Μπρούκλιν","NAME_EN":"Brooklyn","NAME_ES":"Brooklyn","NAME_FA":"بروکلین","NAME_FR":"Brooklyn","NAME_HE":"ברוקלין","NAME_HI":"ब्रुकलीन","NAME_HU":"Brooklyn","NAME_ID":"Brooklyn","NAME_IT":"Brooklyn","NAME_JA":"ブルックリン区","NAME_KO":"브루클린","NAME_NL":"Brooklyn","NAME_PL":"Brooklyn","NAME_PT":"Brooklyn","NAME_RU":"Бруклин","NAME_SV":"Brooklyn","NAME_TR":"Brooklyn","NAME_UK":"Бруклін","NAME_UR":"بروکلن، نیویارک","NAME_VI":"Brooklyn","NAME_ZH":"布魯克林區","NAME_ZHT":"布魯克林區"}},{"arcs":[[-15,-9,31]],"type":"Polygon","properties":{"FEATURECLA":"Admin-2 scale rank","SCALERANK":0,"ADM2_CODE":"USA-34031","ISO_3166_2":"US-34","ISO_A2":"US","ADM0_SR":1,"NAME":"Passaic","NAME_ALT":"Passaic County","NAME_LOCAL":"","TYPE":"County","TYPE_EN":"County","CODE_LOCAL":"34031","REGION":"NJ","REGION_COD":"34","ABBREV":"","AREA_SQKM":503,"SAMEASCITY":0,"LABELRANK":0,"NAME_LEN":7,"MAPCOLOR9":1,"MAPCOLOR13":1,"FIPS":"US34031","SOV_A3":"US1","ADM0_A3":"USA","ADM0_LABEL":2,"ADMIN":"United States of America","GEONUNIT":"United States of America","GU_A3":"USA","MIN_LABEL":8,"MAX_LABEL":10,"MIN_ZOOM":6.6,"WIKIDATAID":"Q495974","NE_ID":1730093407,"latitude":41.095852,"longitude":-74.329476,"NAME_AR":"باسيك","NAME_BN":"","NAME_DE":"Passaic","NAME_EL":"","NAME_EN":"Passaic","NAME_ES":"Passaic","NAME_FA":"شهرستان پاسائیک، نیوجرسی","NAME_FR":"Passaic","NAME_HE":"מחוז פסאיק","NAME_HI":"","NAME_HU":"Passaic","NAME_ID":"","NAME_IT":"Passaic","NAME_JA":"パサイク郡","NAME_KO":"퍼세이익","NAME_NL":"Passaic","NAME_PL":"Passaic","NAME_PT":"Passaic","NAME_RU":"Пассейик","NAME_SV":"Passaic","NAME_TR":"Passaic","NAME_UK":"Пассаїк","NAME_UR":"پاسیک کاؤنٹی، نیو جرسی","NAME_VI":"Passaic","NAME_ZH":"巴赛克县","NAME_ZHT":"巴賽克縣"}}]}}}